H1 CPF  2 ESA 2024 11 20 10 325 01 galileo210
H2  1603002 7210    41550 2024 11 19 23 59 42 2024 11 24 23 59 42   900 1 1  0 0 0  1
H9
10 0 60636  43182.000000  0     -22020537.374     -10085259.490     -17016077.762
10 0 60636  44082.000000  0     -20405892.584     -10223066.297     -18848459.792
10 0 60636  44982.000000  0     -18652188.833     -10498964.714     -20446420.617
10 0 60636  45882.000000  0     -16792786.481     -10926799.660     -21790098.541
10 0 60636  46782.000000  0     -14863344.629     -11514642.160     -22862795.308
10 0 60636  47682.000000  0     -12900751.908     -12264491.741     -23651182.812
10 0 60636  48582.000000  0     -10942021.022     -13172171.170     -24145467.919
10 0 60636  49482.000000  0      -9023181.533     -14227416.857     -24339513.424
10 0 60636  50382.000000  0      -7178205.377     -15414162.151     -24230913.720
10 0 60636  51282.000000  0      -5437998.604     -16711004.716     -23821024.283
10 0 60636  52182.000000  0      -3829490.705     -18091843.432     -23114944.621
10 0 60636  53082.000000  0      -2374849.868     -19526664.968     -22121454.929
10 0 60636  53982.000000  0      -1090848.559     -20982455.525     -20852907.191
10 0 60636  54882.000000  0         11600.858     -22424209.289     -19325072.057
10 0 60636  55782.000000  0        927726.053     -23816002.137     -17556943.332
10 0 60636  56682.000000  0       1658981.563     -25122097.059     -15570502.452
10 0 60636  57582.000000  0       2212939.911     -26308046.748     -13390445.791
10 0 60636  58482.000000  0       2602990.480     -27341758.889     -11043878.142
10 0 60636  59382.000000  0       2847855.693     -28194490.778      -8559976.125
10 0 60636  60282.000000  0       2970939.700     -28841742.149      -5969625.664
10 0 60636  61182.000000  0       2999530.100     -29264018.189      -3305038.039
10 0 60636  62082.000000  0       2963877.786     -29447438.815       -599349.292
10 0 60636  62982.000000  0       2896183.884     -29384175.099       2113792.025
10 0 60636  63882.000000  0       2829525.650     -29072699.095       4800643.570
10 0 60636  64782.000000  0       2796755.120     -28517839.237       7427789.162
10 0 60636  65682.000000  0       2829405.189     -27730639.524       9962554.681
10 0 60636  66582.000000  0       2956637.528     -26728026.907      12373414.700
10 0 60636  67482.000000  0       3204265.458     -25532297.275      14630384.751
10 0 60636  68382.000000  0       3593882.532     -24170436.149      16705394.322
10 0 60636  69282.000000  0       4142124.249     -22673295.357      18572635.941
10 0 60636  70182.000000  0       4860086.146     -21074651.463      20208886.013
10 0 60636  71082.000000  0       5752916.596     -19410175.420      21593793.446
10 0 60636  71982.000000  0       6819597.183     -17716345.675      22710132.516
10 0 60636  72882.000000  0       8052917.610     -16029338.688      23544016.875
10 0 60636  73782.000000  0       9439646.065     -14383931.549      24085072.076
10 0 60636  74682.000000  0      10960889.792     -12812450.946      24326564.531
10 0 60636  75582.000000  0      12592634.724     -11343801.285      24265485.312
10 0 60636  76482.000000  0      14306447.403     -10002602.306      23902587.778
10 0 60636  77382.000000  0      16070317.358      -8808463.059      23242378.554
10 0 60636  78282.000000  0      17849613.692      -7775414.897      22293061.958
10 0 60636  79182.000000  0      19608126.086      -6911521.140      21066438.522
10 0 60636  80082.000000  0      21309157.721      -6218675.556      19577758.817
10 0 60636  80982.000000  0      22916636.007      -5692595.896      17845534.339
10 0 60636  81882.000000  0      24396206.421      -5323012.627      15891307.750
10 0 60636  82782.000000  0      25716275.246      -5094046.871      13739385.258
10 0 60636  83682.000000  0      26848968.562      -4984765.651      11416534.435
10 0 60636  84582.000000  0      27770977.491      -4969896.942       8951651.191
10 0 60636  85482.000000  0      28464263.175      -5020682.022       6375400.052
10 0 60636  86382.000000  0      28916599.402      -5105838.288       3719832.213
10 0 60637    882.000000  0      29121935.868      -5192602.209       1017986.177
10 0 60637   1782.000000  0      29080570.685      -5247819.560      -1696523.999
10 0 60637   2682.000000  0      28799126.746      -5239048.603      -4389927.673
10 0 60637   3582.000000  0      28290332.723      -5135641.450      -7028718.476
10 0 60637   4482.000000  0      27572615.622      -4909769.543      -9580071.790
10 0 60637   5382.000000  0      26669517.717      -4537360.959     -12012253.540
10 0 60637   6282.000000  0      25608956.233      -3998920.011     -14295015.188
10 0 60637   7182.000000  0      24422349.038      -3280203.359     -16399969.983
10 0 60637   8082.000000  0      23143633.818      -2372731.329     -18300945.763
10 0 60637   8982.000000  0      21808211.504      -1274118.364     -19974309.957
10 0 60637   9882.000000  0      20451847.084         11787.832     -21399262.781
10 0 60637  10782.000000  0      19109562.221       1474962.863     -22558095.045
10 0 60637  11682.000000  0      17814554.311       3099456.214     -23436407.448
10 0 60637  12582.000000  0      16597175.786       4863828.070     -24023288.701
10 0 60637  13482.000000  0      15484005.512       6741758.782     -24311450.373
10 0 60637  14382.000000  0      14497041.257       8702812.028     -24297316.821
10 0 60637  15282.000000  0      13653038.400      10713327.911     -23981069.174
10 0 60637  16182.000000  0      12963015.471      12737418.179     -23366642.835
10 0 60637  17082.000000  0      12431941.882      14738032.609     -22461678.551
10 0 60637  17982.000000  0      12058617.565      16678063.317     -21277427.643
10 0 60637  18882.000000  0      11835748.171      18521452.619     -19828612.536
10 0 60637  19782.000000  0      11750213.446      20234269.896     -18133244.275
10 0 60637  20682.000000  0      11783520.321      21785723.911     -16212399.218
10 0 60637  21582.000000  0      11912426.479      23149078.970     -14089957.624
10 0 60637  22482.000000  0      12109714.834      24302446.349     -11792307.315
10 0 60637  23382.000000  0      12345094.607      25229426.252      -9348016.044
10 0 60637  24282.000000  0      12586200.713      25919580.247      -6787476.599
10 0 60637  25182.000000  0      12799660.062      26368719.417      -4142529.037
10 0 60637  26082.000000  0      12952191.276      26578999.208      -1446064.744
10 0 60637  26982.000000  0      13011703.233      26558818.063       1268382.729
10 0 60637  27882.000000  0      12948357.901      26322523.012       3967054.948
10 0 60637  28782.000000  0      12735564.020      25889931.525       6616388.735
10 0 60637  29682.000000  0      12350870.338      25285684.627       9183433.919
10 0 60637  30582.000000  0      11776730.290      24538451.645      11636263.423
10 0 60637  31482.000000  0      11001114.026      23680011.539      13944370.569
10 0 60637  32382.000000  0      10017948.480      22744239.694      16079048.616
10 0 60637  33282.000000  0       8827371.590      21766031.970      18013747.803
10 0 60637  34182.000000  0       7435792.590      20780199.768      19724405.456
10 0 60637  35082.000000  0       5855756.381      19820370.766      21189745.083
10 0 60637  35982.000000  0       4105616.128      18917929.774      22391540.762
10 0 60637  36882.000000  0       2209024.203      18101032.894      23314843.577
10 0 60637  37782.000000  0        194257.304      17393725.831      23948167.349
10 0 60637  38682.000000  0      -1906603.262      16815193.966      24283631.374
10 0 60637  39582.000000  0      -4058610.632      16379167.638      24317058.449
10 0 60637  40482.000000  0      -6224981.527      16093501.238      24048026.970
10 0 60637  41382.000000  0      -8368183.436      15959939.269      23479876.478
10 0 60637  42282.000000  0     -10451045.978      15974076.691      22619666.551
10 0 60637  43182.000000  0     -12437861.803      16125514.784      21478089.527
10 0 60637  44082.000000  0     -14295442.725      16398207.639      20069338.098
10 0 60637  44982.000000  0     -15994098.127      16770988.431      18410929.356
10 0 60637  45882.000000  0     -17508505.127      17218258.975      16523487.420
10 0 60637  46782.000000  0     -18818443.327      17710820.951      14430487.283
10 0 60637  47682.000000  0     -19909371.211      18216822.706      12157963.017
10 0 60637  48582.000000  0     -20772826.193      18702791.926       9734183.938
10 0 60637  49482.000000  0     -21406635.826      19134721.708       7189302.727
10 0 60637  50382.000000  0     -21814933.631      19479175.925       4554979.917
10 0 60637  51282.000000  0     -22007979.097      19704379.081       1863989.433
10 0 60637  52182.000000  0     -22001787.592      19781256.394       -850189.850
10 0 60637  53082.000000  0     -21817581.879      19684391.340      -3553791.373
10 0 60637  53982.000000  0     -21481082.549      19392870.533      -6213181.727
10 0 60637  54882.000000  0     -21021659.747      18890989.323      -8795279.727
10 0 60637  55782.000000  0     -20471372.910      18168795.897     -11267968.446
10 0 60637  56682.000000  0     -19863928.774      17222456.754     -13600495.032
10 0 60637  57582.000000  0     -19233590.412      16054432.024     -15763853.282
10 0 60637  58482.000000  0     -18614071.614      14673455.098     -17731144.211
10 0 60637  59382.000000  0     -18037451.349      13094317.166     -19477910.147
10 0 60637  60282.000000  0     -17533142.358      11337463.367     -20982438.224
10 0 60637  61182.000000  0     -17126946.237       9428413.158     -22226029.570
10 0 60637  62082.000000  0     -16840224.601       7397022.983     -23193230.912
10 0 60637  62982.000000  0     -16689212.278       5276614.233     -23872025.793
10 0 60637  63882.000000  0     -16684494.015       3102993.704     -24253983.128
99